start=new Date('2023-05-08T00:00:00.000Z').valueOf();
sats=[{"TLE_LINE2":"2 56018  42.9994 287.8056 0001597 278.4369  39.0780 15.53138568  1302","ARG_OF_PERICENTER":"278.4369","APOAPSIS":"408.655","ECCENTRICITY":"0.00015970","PERIOD":"92.715","COUNTRY_CODE":"US","OBJECT_ID":"2023-042AJ","INCLINATION":"42.9994","OBJECT_NAME":"STARLINK-5945","LAUNCH_DATE":"2023-03-24","OBJECT_TYPE":"PAYLOAD","REF_FRAME":"TEME","MEAN_MOTION_DOT":"-0.00878213","RCS_SIZE":"LARGE","REV_AT_EPOCH":"130","SITE":"AFETR","EPOCH":"2023-05-07T22:00:00.999936","TIME_SYSTEM":"UTC","EPHEMERIS_TYPE":"0","SEMIMAJOR_AXIS":"6785.706","NORAD_CAT_ID":"56018","GP_ID":"231431818","MEAN_MOTION":"15.53138568","CLASSIFICATION_TYPE":"U","PERIAPSIS":"406.487","ELEMENT_SET_NO":"999","DECAY_DATE":null,"BSTAR":"-0.01499200000000","RA_OF_ASC_NODE":"287.8056","MEAN_ELEMENT_THEORY":"SGP4","MEAN_MOTION_DDOT":"0.0000000000000","FILE":"3903413","MEAN_ANOMALY":"39.0780","CENTER_NAME":"EARTH","TLE_LINE1":"1 56018U 23042AJ  23127.91667824 -.00878213  00000-0 -14992-1 0  9996"},{"OBJECT_TYPE":"PAYLOAD","REF_FRAME":"TEME","LAUNCH_DATE":"2023-03-24","APOAPSIS":"408.711","ECCENTRICITY":"0.00015790","PERIOD":"92.717","INCLINATION":"43.0000","COUNTRY_CODE":"US","OBJECT_NAME":"STARLINK-5949","OBJECT_ID":"2023-042AK","TLE_LINE2":"2 56019  43.0000 287.8131 0001579 275.5621  38.7667 15.53115030  1305","ARG_OF_PERICENTER":"275.5621","EPHEMERIS_TYPE":"0","SEMIMAJOR_AXIS":"6785.775","SITE":"AFETR","EPOCH":"2023-05-07T22:00:00.999936","TIME_SYSTEM":"UTC","REV_AT_EPOCH":"130","RCS_SIZE":"MEDIUM","MEAN_MOTION_DOT":"-0.00878694","RA_OF_ASC_NODE":"287.8131","BSTAR":"-0.01501400000000","DECAY_DATE":null,"GP_ID":"231432570","MEAN_MOTION":"15.53115030","PERIAPSIS":"406.568","CLASSIFICATION_TYPE":"U","ELEMENT_SET_NO":"999","NORAD_CAT_ID":"56019","TLE_LINE1":"1 56019U 23042AK  23127.91667824 -.00878694  00000-0 -15014-1 0  9996","CENTER_NAME":"EARTH","FILE":"3903413","MEAN_ANOMALY":"38.7667","MEAN_ELEMENT_THEORY":"SGP4","MEAN_MOTION_DDOT":"0.0000000000000"},{"TIME_SYSTEM":"UTC","EPOCH":"2023-05-07T22:00:00.999936","SITE":"AFETR","SEMIMAJOR_AXIS":"6785.723","EPHEMERIS_TYPE":"0","MEAN_MOTION_DOT":"-0.00878358","RCS_SIZE":"LARGE","REV_AT_EPOCH":"130","LAUNCH_DATE":"2023-03-24","REF_FRAME":"TEME","OBJECT_TYPE":"PAYLOAD","ARG_OF_PERICENTER":"276.6281","TLE_LINE2":"2 56020  42.9994 287.8076 0001590 276.6281  40.0904 15.53132638  1305","INCLINATION":"42.9994","COUNTRY_CODE":"US","OBJECT_NAME":"STARLINK-5912","OBJECT_ID":"2023-042AL","PERIOD":"92.716","APOAPSIS":"408.667","ECCENTRICITY":"0.00015900","TLE_LINE1":"1 56020U 23042AL  23127.91667824 -.00878358  00000-0 -14998-1 0  9995","CENTER_NAME":"EARTH","MEAN_MOTION_DDOT":"0.0000000000000","MEAN_ELEMENT_THEORY":"SGP4","MEAN_ANOMALY":"40.0904","FILE":"3903413","BSTAR":"-0.01499800000000","DECAY_DATE":null,"RA_OF_ASC_NODE":"287.8076","NORAD_CAT_ID":"56020","ELEMENT_SET_NO":"999","CLASSIFICATION_TYPE":"U","PERIAPSIS":"406.509","MEAN_MOTION":"15.53132638","GP_ID":"231433320"},{"CENTER_NAME":"EARTH","TLE_LINE1":"1 56021U 23042AM  23127.91667824 -.00878997  00000-0 -15013-1 0  9994","MEAN_ELEMENT_THEORY":"SGP4","MEAN_MOTION_DDOT":"0.0000000000000","FILE":"3903413","MEAN_ANOMALY":"41.1309","DECAY_DATE":null,"BSTAR":"-0.01501300000000","RA_OF_ASC_NODE":"287.8092","NORAD_CAT_ID":"56021","GP_ID":"231432068","MEAN_MOTION":"15.53127166","PERIAPSIS":"406.531","CLASSIFICATION_TYPE":"U","ELEMENT_SET_NO":"999","SITE":"AFETR","EPOCH":"2023-05-07T22:00:00.999936","TIME_SYSTEM":"UTC","EPHEMERIS_TYPE":"0","SEMIMAJOR_AXIS":"6785.739","MEAN_MOTION_DOT":"-0.00878997","RCS_SIZE":"LARGE","REV_AT_EPOCH":"130","LAUNCH_DATE":"2023-03-24","OBJECT_TYPE":"PAYLOAD","REF_FRAME":"TEME","TLE_LINE2":"2 56021  42.9999 287.8092 0001582 274.7910  41.1309 15.53127166  1309","ARG_OF_PERICENTER":"274.7910","ECCENTRICITY":"0.00015820","APOAPSIS":"408.678","PERIOD":"92.716","COUNTRY_CODE":"US","INCLINATION":"42.9999","OBJECT_NAME":"STARLINK-5907","OBJECT_ID":"2023-042AM"},{"PERIOD":"92.714","COUNTRY_CODE":"US","INCLINATION":"42.9994","OBJECT_NAME":"STARLINK-5783","OBJECT_ID":"2023-042AN","ECCENTRICITY":"0.00015990","APOAPSIS":"408.570","ARG_OF_PERICENTER":"276.2629","TLE_LINE2":"2 56022  42.9994 287.7959 0001599 276.2629  45.2331 15.53168265  1303","REF_FRAME":"TEME","OBJECT_TYPE":"PAYLOAD","LAUNCH_DATE":"2023-03-24","REV_AT_EPOCH":"130","MEAN_MOTION_DOT":"-0.00878175","RCS_SIZE":"LARGE","SEMIMAJOR_AXIS":"6785.619","EPHEMERIS_TYPE":"0","TIME_SYSTEM":"UTC","SITE":"AFETR","EPOCH":"2023-05-07T22:00:00.999936","PERIAPSIS":"406.399","CLASSIFICATION_TYPE":"U","ELEMENT_SET_NO":"999","GP_ID":"231432318","MEAN_MOTION":"15.53168265","NORAD_CAT_ID":"56022","RA_OF_ASC_NODE":"287.7959","BSTAR":"-0.01497500000000","DECAY_DATE":null,"MEAN_ANOMALY":"45.2331","FILE":"3903413","MEAN_MOTION_DDOT":"0.0000000000000","MEAN_ELEMENT_THEORY":"SGP4","CENTER_NAME":"EARTH","TLE_LINE1":"1 56022U 23042AN  23127.91667824 -.00878175  00000-0 -14975-1 0  9999"},{"EPHEMERIS_TYPE":"0","SEMIMAJOR_AXIS":"6785.670","SITE":"AFETR","EPOCH":"2023-05-07T22:00:00.999936","TIME_SYSTEM":"UTC","REV_AT_EPOCH":"130","RCS_SIZE":"LARGE","MEAN_MOTION_DOT":"-0.00879217","OBJECT_TYPE":"PAYLOAD","REF_FRAME":"TEME","LAUNCH_DATE":"2023-03-24","ECCENTRICITY":"0.00015830","APOAPSIS":"408.609","PERIOD":"92.715","COUNTRY_CODE":"US","OBJECT_ID":"2023-042AP","INCLINATION":"42.9992","OBJECT_NAME":"STARLINK-5771","TLE_LINE2":"2 56023  42.9992 287.8018 0001583 274.5474  44.5597 15.53151026  1304","ARG_OF_PERICENTER":"274.5474","TLE_LINE1":"1 56023U 23042AP  23127.91667824 -.00879217  00000-0 -15004-1 0  9992","CENTER_NAME":"EARTH","FILE":"3903413","MEAN_ANOMALY":"44.5597","MEAN_ELEMENT_THEORY":"SGP4","MEAN_MOTION_DDOT":"0.0000000000000","RA_OF_ASC_NODE":"287.8018","BSTAR":"-0.01500400000000","DECAY_DATE":null,"GP_ID":"231433070","MEAN_MOTION":"15.53151026","PERIAPSIS":"406.461","CLASSIFICATION_TYPE":"U","ELEMENT_SET_NO":"999","NORAD_CAT_ID":"56023"},{"MEAN_MOTION_DOT":"-0.00879036","RCS_SIZE":"LARGE","REV_AT_EPOCH":"130","TIME_SYSTEM":"UTC","EPOCH":"2023-05-07T22:00:00.999936","SITE":"AFETR","SEMIMAJOR_AXIS":"6785.566","EPHEMERIS_TYPE":"0","ARG_OF_PERICENTER":"273.9540","TLE_LINE2":"2 56024  42.9994 287.7905 0001591 273.9540  49.9295 15.53186741  1303","OBJECT_ID":"2023-042AQ","COUNTRY_CODE":"US","INCLINATION":"42.9994","OBJECT_NAME":"STARLINK-5772","PERIOD":"92.713","APOAPSIS":"408.510","ECCENTRICITY":"0.00015910","LAUNCH_DATE":"2023-03-24","REF_FRAME":"TEME","OBJECT_TYPE":"PAYLOAD","MEAN_MOTION_DDOT":"0.0000000000000","MEAN_ELEMENT_THEORY":"SGP4","MEAN_ANOMALY":"49.9295","FILE":"3903413","TLE_LINE1":"1 56024U 23042AQ  23127.91667824 -.00879036  00000-0 -14981-1 0  9995","CENTER_NAME":"EARTH","NORAD_CAT_ID":"56024","ELEMENT_SET_NO":"999","CLASSIFICATION_TYPE":"U","PERIAPSIS":"406.351","MEAN_MOTION":"15.53186741","GP_ID":"231432821","DECAY_DATE":null,"BSTAR":"-0.01498100000000","RA_OF_ASC_NODE":"287.7905"},{"MEAN_MOTION_DDOT":"0.0000000000000","MEAN_ELEMENT_THEORY":"SGP4","MEAN_ANOMALY":"40.6514","FILE":"3903413","TLE_LINE1":"1 56025U 23042AR  23127.91667824 -.00876081  00000-0 -14943-1 0  9991","CENTER_NAME":"EARTH","NORAD_CAT_ID":"56025","PERIAPSIS":"406.453","CLASSIFICATION_TYPE":"U","ELEMENT_SET_NO":"999","GP_ID":"231431569","MEAN_MOTION":"15.53155398","BSTAR":"-0.01494300000000","DECAY_DATE":null,"RA_OF_ASC_NODE":"287.7998","RCS_SIZE":"LARGE","MEAN_MOTION_DOT":"-0.00876081","REV_AT_EPOCH":"130","TIME_SYSTEM":"UTC","SITE":"AFETR","EPOCH":"2023-05-07T22:00:00.999936","SEMIMAJOR_AXIS":"6785.657","EPHEMERIS_TYPE":"0","ARG_OF_PERICENTER":"279.2525","TLE_LINE2":"2 56025  42.9994 287.7998 0001575 279.2525  40.6514 15.53155398  1306","PERIOD":"92.714","INCLINATION":"42.9994","COUNTRY_CODE":"US","OBJECT_ID":"2023-042AR","OBJECT_NAME":"STARLINK-5766","APOAPSIS":"408.591","ECCENTRICITY":"0.00015750","LAUNCH_DATE":"2023-03-24","REF_FRAME":"TEME","OBJECT_TYPE":"PAYLOAD"},{"TLE_LINE1":"1 56026U 23042AS  23127.91667824 -.00879115  00000-0 -14989-1 0  9993","CENTER_NAME":"EARTH","MEAN_ANOMALY":"48.4847","FILE":"3903413","MEAN_MOTION_DDOT":"0.0000000000000","MEAN_ELEMENT_THEORY":"SGP4","RA_OF_ASC_NODE":"287.7944","DECAY_DATE":null,"BSTAR":"-0.01498900000000","ELEMENT_SET_NO":"999","CLASSIFICATION_TYPE":"U","PERIAPSIS":"406.389","MEAN_MOTION":"15.53174886","GP_ID":"231431819","NORAD_CAT_ID":"56026","SEMIMAJOR_AXIS":"6785.600","EPHEMERIS_TYPE":"0","TIME_SYSTEM":"UTC","EPOCH":"2023-05-07T22:00:00.999936","SITE":"AFETR","REV_AT_EPOCH":"130","MEAN_MOTION_DOT":"-0.00879115","RCS_SIZE":"LARGE","REF_FRAME":"TEME","OBJECT_TYPE":"PAYLOAD","LAUNCH_DATE":"2023-03-24","INCLINATION":"42.9996","COUNTRY_CODE":"US","OBJECT_ID":"2023-042AS","OBJECT_NAME":"STARLINK-5770","PERIOD":"92.713","ECCENTRICITY":"0.00015860","APOAPSIS":"408.541","ARG_OF_PERICENTER":"273.8069","TLE_LINE2":"2 56026  42.9996 287.7944 0001586 273.8069  48.4847 15.53174886  1303"},{"REF_FRAME":"TEME","OBJECT_TYPE":"PAYLOAD","LAUNCH_DATE":"2023-03-24","PERIOD":"92.714","INCLINATION":"42.9997","COUNTRY_CODE":"US","OBJECT_NAME":"STARLINK-5777","OBJECT_ID":"2023-042AT","APOAPSIS":"408.568","ECCENTRICITY":"0.00015680","ARG_OF_PERICENTER":"278.2568","TLE_LINE2":"2 56027  42.9997 287.7978 0001568 278.2568  42.4432 15.53161461  1304","SEMIMAJOR_AXIS":"6785.639","EPHEMERIS_TYPE":"0","TIME_SYSTEM":"UTC","SITE":"AFETR","EPOCH":"2023-05-07T22:00:00.999936","REV_AT_EPOCH":"130","RCS_SIZE":"LARGE","MEAN_MOTION_DOT":"-0.00876149","RA_OF_ASC_NODE":"287.7978","BSTAR":"-0.01494100000000","DECAY_DATE":null,"PERIAPSIS":"406.440","CLASSIFICATION_TYPE":"U","ELEMENT_SET_NO":"999","GP_ID":"231432571","MEAN_MOTION":"15.53161461","NORAD_CAT_ID":"56027","CENTER_NAME":"EARTH","TLE_LINE1":"1 56027U 23042AT  23127.91667824 -.00876149  00000-0 -14941-1 0  9996","MEAN_ANOMALY":"42.4432","FILE":"3903413","MEAN_MOTION_DDOT":"0.0000000000000","MEAN_ELEMENT_THEORY":"SGP4"}];
